{"type":"FeatureCollection","features":[{"type":"Feature","id":"osm-way-854840962","properties":{"name":"Rio Pardo","source":"OpenStreetMap contributors","osm_way_id":"854840962","waterway":"river","width_verified":false},"geometry":{"type":"LineString","coordinates":[[-48.4505788,-22.9799105],[-48.4507437,-22.9799513]]}},{"type":"Feature","id":"osm-way-854840963","properties":{"name":"Rio Pardo","source":"OpenStreetMap contributors","osm_way_id":"854840963","waterway":"river","width_verified":false},"geometry":{"type":"LineString","coordinates":[[-48.4147743,-22.9962358],[-48.4148102,-22.9962085],[-48.4148531,-22.9961789],[-48.414904,-22.9961221],[-48.4149295,-22.996048],[-48.4149738,-22.9959455],[-48.4149818,-22.9958505],[-48.4149818,-22.9957665],[-48.4150006,-22.9956851],[-48.415018,-22.9956283],[-48.4150274,-22.9955628],[-48.4150153,-22.9955135],[-48.4149899,-22.9954752],[-48.4148866,-22.9954209],[-48.4148169,-22.9954172],[-48.4147941,-22.9953826],[-48.4147847,-22.9953122],[-48.41479,-22.9952567],[-48.414786,-22.9952073],[-48.4148276,-22.9951419],[-48.4148772,-22.9950826],[-48.414892,-22.9949875],[-48.4148866,-22.9949221],[-48.4147659,-22.9946826],[-48.4147485,-22.9946419],[-48.4147243,-22.9945777],[-48.4146827,-22.9945332],[-48.4146492,-22.9944999],[-48.4145929,-22.9944641],[-48.4145312,-22.9944147],[-48.4145258,-22.9943394],[-48.4145594,-22.9943172],[-48.4146358,-22.9942925],[-48.4147699,-22.9942814],[-48.4148933,-22.994316],[-48.414959,-22.9943073],[-48.4150569,-22.9942518],[-48.4152621,-22.9940579],[-48.4154405,-22.9938406],[-48.4155478,-22.9936308],[-48.4156658,-22.9935123],[-48.4157355,-22.9934295],[-48.4158991,-22.9932814],[-48.4160373,-22.993116],[-48.4161057,-22.9929987],[-48.4161513,-22.9928456],[-48.4161848,-22.9927468],[-48.4162653,-22.9926308],[-48.4163256,-22.9925308],[-48.416335,-22.9924296],[-48.4162948,-22.9923283],[-48.4162787,-22.9922678],[-48.4163283,-22.9921999],[-48.41639,-22.992137],[-48.4164155,-22.9920271],[-48.4164611,-22.9919542],[-48.4165724,-22.9918617],[-48.4166622,-22.9918147],[-48.416854,-22.9917419],[-48.4169747,-22.9917123],[-48.4171678,-22.991695],[-48.4173381,-22.9916505],[-48.4174548,-22.9916098],[-48.4175675,-22.9915431],[-48.4177002,-22.9914814],[-48.4178665,-22.9913999],[-48.417955,-22.9913518],[-48.4180234,-22.9913123],[-48.4180932,-22.9912975],[-48.4181938,-22.991316],[-48.418285,-22.9913197],[-48.4183654,-22.9913073],[-48.4184593,-22.9912728],[-48.418572,-22.9911987],[-48.4186524,-22.9911296],[-48.4187275,-22.9910616],[-48.4188214,-22.9910456],[-48.4189005,-22.9910728],[-48.4189716,-22.9910678],[-48.4191218,-22.990974],[-48.4194115,-22.9908061],[-48.41961,-22.990716],[-48.4198004,-22.9905962],[-48.4199171,-22.9905357],[-48.4200995,-22.9904765],[-48.4202148,-22.9904703],[-48.4203663,-22.9904863],[-48.4205715,-22.9905098],[-48.4207191,-22.9905333],[-48.4208559,-22.9905283],[-48.420994,-22.9905258],[-48.4211241,-22.9905123],[-48.4212796,-22.9904592],[-48.4215599,-22.9903382],[-48.4216404,-22.9902641],[-48.4217101,-22.9900419],[-48.4216672,-22.9898592],[-48.4215707,-22.9897258],[-48.4214044,-22.9895777],[-48.4213024,-22.9894394],[-48.4213185,-22.9892962],[-48.4214687,-22.989153],[-48.4216297,-22.9889703],[-48.4216726,-22.9888468],[-48.4217691,-22.9886295],[-48.4218496,-22.9883381],[-48.4219569,-22.9880962],[-48.4221017,-22.9879085],[-48.4221876,-22.9877357],[-48.4223056,-22.9873603],[-48.4222305,-22.9871332],[-48.4223163,-22.9869504],[-48.4226811,-22.9869109],[-48.422901,-22.9868319],[-48.4230352,-22.986743],[-48.4231854,-22.9867035],[-48.4233946,-22.9865801],[-48.4235287,-22.9864368],[-48.4237915,-22.9864517],[-48.4240383,-22.9865751],[-48.4241617,-22.986743],[-48.4243441,-22.9870492],[-48.4245318,-22.9871579],[-48.4246391,-22.9872566],[-48.4247464,-22.9874196],[-48.424784,-22.9876023],[-48.4248108,-22.9877307],[-48.4247732,-22.9878838],[-48.4247035,-22.9880616],[-48.4246016,-22.9881653],[-48.4243387,-22.988269],[-48.4241402,-22.9883875],[-48.4240061,-22.9885999],[-48.4240919,-22.9887036],[-48.4241349,-22.9888962],[-48.4241456,-22.9891777],[-48.4242529,-22.9895431],[-48.4243494,-22.9896122],[-48.4244514,-22.9896567],[-48.4245694,-22.9896715],[-48.4248698,-22.9896715],[-48.4251916,-22.989632],[-48.4254599,-22.989632],[-48.4257442,-22.9896468],[-48.4259373,-22.9896863],[-48.4261069,-22.9898337],[-48.4262112,-22.9900229],[-48.4268186,-22.9908653],[-48.4270486,-22.9912267],[-48.4276053,-22.99108],[-48.4278586,-22.990762],[-48.4279707,-22.9906812],[-48.4281394,-22.9907802],[-48.4282467,-22.9908641],[-48.428464,-22.9908926],[-48.4285537,-22.9908258],[-48.4286249,-22.9905703],[-48.4287804,-22.9904172],[-48.4289306,-22.9903086],[-48.4289789,-22.9901197],[-48.4291291,-22.9900481],[-48.4293222,-22.9900209],[-48.4293772,-22.9900579],[-48.4293611,-22.9901407],[-48.4292337,-22.9903616],[-48.4292136,-22.9904345],[-48.4292539,-22.9904999],[-48.4293129,-22.9905197],[-48.429447,-22.9904752],[-48.4295408,-22.99039],[-48.4295838,-22.9902937],[-48.4296522,-22.9902147],[-48.4298265,-22.9901332],[-48.4299204,-22.9900703],[-48.4301913,-22.9898542],[-48.4305668,-22.9896962],[-48.4308994,-22.989469],[-48.4313285,-22.9893604],[-48.4318543,-22.9892715],[-48.4321332,-22.9892912],[-48.4325624,-22.9893703],[-48.4329701,-22.9894888],[-48.4334314,-22.9895876],[-48.4339142,-22.9895382],[-48.434397,-22.9895283],[-48.4347671,-22.9892369],[-48.4348476,-22.9889554],[-48.4348422,-22.9885702],[-48.4350729,-22.9883628],[-48.4353626,-22.9881258],[-48.4354913,-22.9879085],[-48.4357381,-22.987869],[-48.4362531,-22.987948],[-48.4366393,-22.9882739],[-48.436929,-22.9884814],[-48.4373474,-22.9885702],[-48.4377551,-22.9884814],[-48.4378517,-22.9881851],[-48.4381092,-22.9879579],[-48.4385812,-22.9879875],[-48.4390319,-22.9882443],[-48.4392893,-22.9886591],[-48.4393323,-22.9891332],[-48.4394074,-22.9893801],[-48.4401584,-22.9895974],[-48.4406304,-22.9896962],[-48.4408879,-22.9897357],[-48.4412205,-22.9895579],[-48.4415102,-22.9892912],[-48.4420788,-22.9893011],[-48.4425295,-22.9895777],[-48.4428728,-22.9897456],[-48.4432268,-22.9898641],[-48.443656,-22.989795],[-48.444171,-22.989153],[-48.4446001,-22.9885406],[-48.4443856,-22.9880665],[-48.4444285,-22.9872566],[-48.4453941,-22.9870196],[-48.4460592,-22.9869406],[-48.446188,-22.9865257],[-48.4452385,-22.9857553],[-48.4454048,-22.985464],[-48.4454262,-22.9851825],[-48.445158,-22.9849257],[-48.4439028,-22.9841552],[-48.4429264,-22.9836021],[-48.4423471,-22.9832268],[-48.4419394,-22.9832416],[-48.4416604,-22.9836811],[-48.4415102,-22.9840762],[-48.4410167,-22.9839775],[-48.4405875,-22.9836021],[-48.4404803,-22.9831478],[-48.440845,-22.9827922],[-48.4409308,-22.9824514],[-48.4406305,-22.9822786],[-48.4403944,-22.9818588],[-48.4405929,-22.9813254],[-48.4403408,-22.9806093],[-48.4403515,-22.9802241],[-48.4409309,-22.9795327],[-48.4414888,-22.9791573],[-48.4427548,-22.9791376],[-48.4431839,-22.9796315],[-48.4434414,-22.9801846],[-48.4444928,-22.9799278],[-48.4450293,-22.979987],[-48.4465742,-22.9797154],[-48.4468264,-22.9798932],[-48.447336,-22.9798537],[-48.4476149,-22.9801056],[-48.4471965,-22.9803426],[-48.4466171,-22.9806982],[-48.4468103,-22.9810192],[-48.44688,-22.9813946],[-48.4473467,-22.9816958],[-48.4480977,-22.981034],[-48.4489989,-22.9804216],[-48.4494066,-22.9799278],[-48.4499753,-22.9797846],[-48.4502864,-22.9798685],[-48.4505788,-22.9799105]]}},{"type":"Feature","id":"osm-way-1415622345","properties":{"name":"Rio Pardo","source":"OpenStreetMap contributors","osm_way_id":"1415622345","waterway":"river","width_verified":false},"geometry":{"type":"LineString","coordinates":[[-48.4507437,-22.9799513],[-48.4509891,-22.979971],[-48.4510307,-22.9798019],[-48.4512131,-22.9796673],[-48.4517777,-22.9794932],[-48.4528238,-22.9791573],[-48.4533656,-22.9788314],[-48.4535694,-22.9788363],[-48.4538215,-22.9785746],[-48.4539128,-22.9781498],[-48.4544063,-22.9776757],[-48.4546852,-22.9777152],[-48.4545994,-22.9780313],[-48.4545779,-22.9783671],[-48.4547925,-22.9785844],[-48.4550286,-22.9785449],[-48.4554899,-22.978377],[-48.455801,-22.9778535],[-48.4564555,-22.9772707],[-48.4561658,-22.9769053],[-48.4570241,-22.9763916],[-48.4572065,-22.9759768],[-48.4575016,-22.9759817],[-48.4578234,-22.9765349],[-48.4580434,-22.9769695],[-48.4584457,-22.9776955],[-48.4589821,-22.9780116],[-48.4594918,-22.9787425],[-48.4598726,-22.9792512],[-48.4605378,-22.979671],[-48.4607953,-22.9800216],[-48.4609401,-22.9799278],[-48.4608972,-22.9796018],[-48.4609938,-22.9792561],[-48.4610903,-22.9788511],[-48.4609616,-22.9784116],[-48.4606451,-22.9779177],[-48.4602535,-22.9771275],[-48.4601784,-22.9767028],[-48.4609992,-22.9764756],[-48.4613157,-22.9760163],[-48.4609616,-22.9758039],[-48.4609133,-22.9756063],[-48.4610367,-22.9754236],[-48.4615248,-22.975152],[-48.4617126,-22.9748754],[-48.4619057,-22.9747569],[-48.4622598,-22.9748902],[-48.4625119,-22.9755619],[-48.4623671,-22.9760755],[-48.4624904,-22.9761447],[-48.462748,-22.9760014],[-48.4629679,-22.976199],[-48.4633005,-22.9763274],[-48.4635794,-22.9756804],[-48.4641159,-22.9752853],[-48.4647864,-22.9746803],[-48.465178,-22.9743593],[-48.4654811,-22.9741568],[-48.4656421,-22.9737296],[-48.4659076,-22.9735839],[-48.4660685,-22.9733443],[-48.4660229,-22.9728974],[-48.4661973,-22.9726677],[-48.4666506,-22.9725096],[-48.4666774,-22.9722652],[-48.4665728,-22.9720775],[-48.4659505,-22.9718281],[-48.4658003,-22.971633],[-48.4657091,-22.971512],[-48.4657011,-22.9714058],[-48.4657359,-22.9712848],[-48.4660202,-22.9711366],[-48.4661101,-22.9712095],[-48.4661704,-22.9713885],[-48.4664414,-22.9714243],[-48.4666157,-22.9713539],[-48.466782,-22.9711761],[-48.466727,-22.9710082],[-48.4666586,-22.9709786],[-48.4664226,-22.9710773],[-48.466334,-22.9710823],[-48.4662992,-22.9709835],[-48.4663126,-22.9708501],[-48.4661704,-22.9707884],[-48.4662496,-22.9706328],[-48.4665459,-22.9704007],[-48.4667713,-22.9704402],[-48.4668732,-22.9703414],[-48.4668571,-22.9702871],[-48.4667189,-22.970155],[-48.466731,-22.97005],[-48.4668464,-22.9700303],[-48.4670207,-22.9700858],[-48.4671575,-22.9700796],[-48.4671856,-22.9699549],[-48.4670234,-22.9698006],[-48.467018,-22.9696969],[-48.4672541,-22.9695857],[-48.4676886,-22.9696351],[-48.4678173,-22.9699117],[-48.4681338,-22.9701636],[-48.4681231,-22.9704847],[-48.4680695,-22.9709242],[-48.4678066,-22.9713737],[-48.4673345,-22.971749],[-48.4675169,-22.9721886],[-48.46771,-22.972559],[-48.4679622,-22.9732208],[-48.4681714,-22.9738777],[-48.4686113,-22.9743617],[-48.4691584,-22.9745889],[-48.4696412,-22.9745741],[-48.4702689,-22.9742926],[-48.4707409,-22.9734875],[-48.4712023,-22.9733888],[-48.471905,-22.9726084],[-48.4718835,-22.9720256],[-48.4721464,-22.9717095],[-48.4726292,-22.9716898],[-48.4728662,-22.9713887],[-48.4733051,-22.9710872],[-48.4736806,-22.9709242],[-48.4740561,-22.9713836],[-48.474614,-22.971586],[-48.4750915,-22.9714823],[-48.4756655,-22.9703513],[-48.4760517,-22.9695116],[-48.4765828,-22.9692993],[-48.4768135,-22.969403],[-48.4768027,-22.9697784],[-48.4769154,-22.9702871],[-48.476851,-22.9707711],[-48.4768081,-22.971344],[-48.4770602,-22.9718379],[-48.4773928,-22.9717787],[-48.4775698,-22.9714231],[-48.4780044,-22.9707464],[-48.4783155,-22.9701241],[-48.4786803,-22.9700006],[-48.4792757,-22.9699166],[-48.4800267,-22.9698969],[-48.4804559,-22.969971],[-48.4806597,-22.970292],[-48.4808314,-22.9707168],[-48.4809172,-22.9710082],[-48.4810353,-22.9712156],[-48.4812874,-22.9714527],[-48.481459,-22.9716305],[-48.4818721,-22.9717589],[-48.4827787,-22.9720454],[-48.4830845,-22.9724257],[-48.4834922,-22.9731517],[-48.4838677,-22.9736061],[-48.4845865,-22.9737345],[-48.4853053,-22.9734875],[-48.4861851,-22.9735666],[-48.4866518,-22.973611],[-48.4868342,-22.9733443],[-48.4869412,-22.9732616],[-48.4870411,-22.973244],[-48.4875672,-22.973306],[-48.4876679,-22.9732911],[-48.4877852,-22.9732258],[-48.4880813,-22.9728484],[-48.4882117,-22.9727659],[-48.4886259,-22.9726335],[-48.4887222,-22.9726533],[-48.4888995,-22.9727764],[-48.4889862,-22.9728896],[-48.489039,-22.9731072],[-48.4890872,-22.9738333],[-48.4891575,-22.9739887],[-48.4893033,-22.9740801],[-48.4894682,-22.9740838],[-48.4900367,-22.9740456],[-48.4901955,-22.974083],[-48.4903401,-22.9741594],[-48.4906096,-22.9743841],[-48.4908736,-22.9745692],[-48.4909549,-22.9746012]]}}]}